[{"OBJECT_NAME":"STARLINK-33646","OBJECT_ID":"2025-053R","EPOCH":"2026-03-09T11:28:34.476384","MEAN_MOTION":15.27602226,"ECCENTRICITY":0.00010184,"INCLINATION":42.9971,"RA_OF_ASC_NODE":242.7529,"ARG_OF_PERICENTER":236.3749,"MEAN_ANOMALY":123.7006,"EPHEMERIS_TYPE":0,"CLASSIFICATION_TYPE":"U","NORAD_CAT_ID":63280,"ELEMENT_SET_NO":999,"REV_AT_EPOCH":5616,"BSTAR":0.0011436061,"MEAN_MOTION_DOT":0.00031363,"MEAN_MOTION_DDOT":0},{"OBJECT_NAME":"SIMSAT 1","OBJECT_ID":"2000-026A","EPOCH":"2026-03-09T17:22:54.646176","MEAN_MOTION":15.27666538,"ECCENTRICITY":0.00084816,"INCLINATION":86.3501,"RA_OF_ASC_NODE":180.5413,"ARG_OF_PERICENTER":14.8337,"MEAN_ANOMALY":345.3157,"EPHEMERIS_TYPE":0,"CLASSIFICATION_TYPE":"U","NORAD_CAT_ID":26365,"ELEMENT_SET_NO":999,"REV_AT_EPOCH":42720,"BSTAR":0.00013499313,"MEAN_MOTION_DOT":3.69e-5,"MEAN_MOTION_DDOT":0}]
